sat07893
1 07893U 72058BK  20046.79242182  .00000076  00000-0  64840-4 0  9995
2 07893  97.8008 114.3513 0401775 256.7090  98.8973 13.75257471213644
